start=new Date('2021-11-09T00:00:00.000Z').valueOf();
sats=[{"TLE_LINE1":"1 45579U 20025BA  21312.66847444  .00004692  00000-0  33390-3 0  9993","LAUNCH_DATE":"2020-04-22","ELEMENT_SET_NO":"999","CLASSIFICATION_TYPE":"U","MEAN_ANOMALY":"330.8219","MEAN_MOTION_DOT":"0.00004692","ECCENTRICITY":"0.00047360","FILE":"3209620","SITE":"AFETR","BSTAR":"0.00033390000000","OBJECT_TYPE":"PAYLOAD","DECAY_DATE":null,"EPHEMERIS_TYPE":"0","INCLINATION":"53.0541","APOAPSIS":"550.563","EPOCH":"2021-11-08T16:02:36.191616","TIME_SYSTEM":"UTC","NORAD_CAT_ID":"45579","PERIAPSIS":"544.003","COUNTRY_CODE":"US","RA_OF_ASC_NODE":"298.5885","RCS_SIZE":"LARGE","TLE_LINE2":"2 45579  53.0541 298.5885 0004736  29.3034 330.8219 15.06377236 87625","OBJECT_NAME":"STARLINK-1332","PERIOD":"95.594","ARG_OF_PERICENTER":"29.3034","REV_AT_EPOCH":"8762","MEAN_MOTION":"15.06377236","MEAN_ELEMENT_THEORY":"SGP4","GP_ID":"189301184","CENTER_NAME":"EARTH","MEAN_MOTION_DDOT":"0.0000000000000","OBJECT_ID":"2020-025BA","SEMIMAJOR_AXIS":"6925.418","REF_FRAME":"TEME"},{"COUNTRY_CODE":"US","PERIAPSIS":"546.136","EPOCH":"2021-11-08T19:34:56.803008","TIME_SYSTEM":"UTC","NORAD_CAT_ID":"45580","EPHEMERIS_TYPE":"0","INCLINATION":"53.0537","APOAPSIS":"548.254","OBJECT_NAME":"STARLINK-1333","PERIOD":"95.592","TLE_LINE2":"2 45580  53.0537 347.9275 0001529  67.7369 292.3782 15.06406026 86949","RCS_SIZE":"LARGE","RA_OF_ASC_NODE":"347.9275","OBJECT_ID":"2020-025BB","GP_ID":"189301934","MEAN_ELEMENT_THEORY":"SGP4","MEAN_MOTION_DDOT":"0.0000000000000","CENTER_NAME":"EARTH","MEAN_MOTION":"15.06406026","ARG_OF_PERICENTER":"67.7369","REV_AT_EPOCH":"8694","REF_FRAME":"TEME","SEMIMAJOR_AXIS":"6925.330","ELEMENT_SET_NO":"999","LAUNCH_DATE":"2020-04-22","TLE_LINE1":"1 45580U 20025BB  21312.81593522  .00009906  00000-0  68289-3 0  9995","MEAN_ANOMALY":"292.3782","CLASSIFICATION_TYPE":"U","BSTAR":"0.00068289000000","SITE":"AFETR","FILE":"3209620","ECCENTRICITY":"0.00015290","MEAN_MOTION_DOT":"0.00009906","DECAY_DATE":null,"OBJECT_TYPE":"PAYLOAD"},{"SEMIMAJOR_AXIS":"6925.344","REF_FRAME":"TEME","MEAN_MOTION":"15.06401362","REV_AT_EPOCH":"8703","ARG_OF_PERICENTER":"85.4415","OBJECT_ID":"2020-025BC","CENTER_NAME":"EARTH","MEAN_MOTION_DDOT":"0.0000000000000","MEAN_ELEMENT_THEORY":"SGP4","GP_ID":"189269697","RCS_SIZE":"LARGE","RA_OF_ASC_NODE":"339.3992","PERIOD":"95.592","OBJECT_NAME":"STARLINK-1335","TLE_LINE2":"2 45581  53.0530 339.3992 0001232  85.4415 274.6715 15.06401362 87032","APOAPSIS":"548.063","EPHEMERIS_TYPE":"0","INCLINATION":"53.0530","COUNTRY_CODE":"US","PERIAPSIS":"546.356","TIME_SYSTEM":"UTC","EPOCH":"2021-11-08T11:43:50.718144","NORAD_CAT_ID":"45581","OBJECT_TYPE":"PAYLOAD","DECAY_DATE":null,"FILE":"3209238","ECCENTRICITY":"0.00012320","MEAN_MOTION_DOT":"0.00006281","BSTAR":"0.00044018000000","SITE":"AFETR","CLASSIFICATION_TYPE":"U","MEAN_ANOMALY":"274.6715","LAUNCH_DATE":"2020-04-22","TLE_LINE1":"1 45581U 20025BC  21312.48878146  .00006281  00000-0  44018-3 0  9994","ELEMENT_SET_NO":"999"},{"CLASSIFICATION_TYPE":"U","MEAN_ANOMALY":"272.6398","TLE_LINE1":"1 45582U 20025BD  21312.77628878  .00004741  00000-0  33702-3 0  9999","LAUNCH_DATE":"2020-04-22","ELEMENT_SET_NO":"999","OBJECT_TYPE":"PAYLOAD","DECAY_DATE":null,"MEAN_MOTION_DOT":"0.00004741","FILE":"3209620","ECCENTRICITY":"0.00014290","SITE":"AFETR","BSTAR":"0.00033702000000","RA_OF_ASC_NODE":"338.1137","RCS_SIZE":"LARGE","TLE_LINE2":"2 45582  53.0531 338.1137 0001429  87.4754 272.6398 15.06396250 87076","PERIOD":"95.592","OBJECT_NAME":"STARLINK-1337","APOAPSIS":"548.215","EPHEMERIS_TYPE":"0","INCLINATION":"53.0531","TIME_SYSTEM":"UTC","EPOCH":"2021-11-08T18:37:51.350592","NORAD_CAT_ID":"45582","PERIAPSIS":"546.235","COUNTRY_CODE":"US","SEMIMAJOR_AXIS":"6925.360","REF_FRAME":"TEME","MEAN_MOTION":"15.06396250","REV_AT_EPOCH":"8707","ARG_OF_PERICENTER":"87.4754","MEAN_MOTION_DDOT":"0.0000000000000","CENTER_NAME":"EARTH","MEAN_ELEMENT_THEORY":"SGP4","GP_ID":"189300932","OBJECT_ID":"2020-025BD"},{"MEAN_MOTION_DOT":"0.00010659","ECCENTRICITY":"0.00012060","FILE":"3209238","SITE":"AFETR","BSTAR":"0.00073356000000","OBJECT_TYPE":"PAYLOAD","DECAY_DATE":null,"TLE_LINE1":"1 45583U 20025BE  21312.49250144  .00010659  00000-0  73356-3 0  9990","LAUNCH_DATE":"2020-04-22","ELEMENT_SET_NO":"999","CLASSIFICATION_TYPE":"U","MEAN_ANOMALY":"284.9355","ARG_OF_PERICENTER":"75.1768","MEAN_MOTION":"15.06390306","REV_AT_EPOCH":"8703","CENTER_NAME":"EARTH","MEAN_MOTION_DDOT":"0.0000000000000","MEAN_ELEMENT_THEORY":"SGP4","GP_ID":"189268696","OBJECT_ID":"2020-025BE","SEMIMAJOR_AXIS":"6925.378","REF_FRAME":"TEME","APOAPSIS":"548.078","INCLINATION":"53.0532","EPHEMERIS_TYPE":"0","EPOCH":"2021-11-08T11:49:12.124416","TIME_SYSTEM":"UTC","NORAD_CAT_ID":"45583","PERIAPSIS":"546.408","COUNTRY_CODE":"US","RA_OF_ASC_NODE":"339.3786","RCS_SIZE":"LARGE","TLE_LINE2":"2 45583  53.0532 339.3786 0001206  75.1768 284.9355 15.06390306 87034","PERIOD":"95.593","OBJECT_NAME":"STARLINK-1340"},{"APOAPSIS":"548.385","EPHEMERIS_TYPE":"0","INCLINATION":"53.0542","COUNTRY_CODE":"US","PERIAPSIS":"546.180","TIME_SYSTEM":"UTC","NORAD_CAT_ID":"45584","EPOCH":"2021-11-08T19:30:58.011552","RCS_SIZE":"LARGE","RA_OF_ASC_NODE":"337.9359","PERIOD":"95.594","OBJECT_NAME":"STARLINK-1343","TLE_LINE2":"2 45584  53.0542 337.9359 0001592  61.9303 298.1847 15.06377433 87086","MEAN_MOTION":"15.06377433","REV_AT_EPOCH":"8708","ARG_OF_PERICENTER":"61.9303","OBJECT_ID":"2020-025BF","CENTER_NAME":"EARTH","MEAN_MOTION_DDOT":"0.0000000000000","GP_ID":"189301435","MEAN_ELEMENT_THEORY":"SGP4","SEMIMAJOR_AXIS":"6925.418","REF_FRAME":"TEME","LAUNCH_DATE":"2020-04-22","TLE_LINE1":"1 45584U 20025BF  21312.81317143  .00001650  00000-0  12969-3 0  9994","ELEMENT_SET_NO":"999","CLASSIFICATION_TYPE":"U","MEAN_ANOMALY":"298.1847","ECCENTRICITY":"0.00015920","FILE":"3209620","MEAN_MOTION_DOT":"0.00001650","SITE":"AFETR","BSTAR":"0.00012969000000","OBJECT_TYPE":"PAYLOAD","DECAY_DATE":null},{"MEAN_MOTION":"15.06382680","ARG_OF_PERICENTER":"81.6744","REV_AT_EPOCH":"8701","OBJECT_ID":"2020-025BG","CENTER_NAME":"EARTH","MEAN_MOTION_DDOT":"0.0000000000000","GP_ID":"189270197","MEAN_ELEMENT_THEORY":"SGP4","SEMIMAJOR_AXIS":"6925.402","REF_FRAME":"TEME","APOAPSIS":"548.281","INCLINATION":"53.0547","EPHEMERIS_TYPE":"0","COUNTRY_CODE":"US","PERIAPSIS":"546.253","TIME_SYSTEM":"UTC","NORAD_CAT_ID":"45585","EPOCH":"2021-11-08T08:43:25.320864","RCS_SIZE":"LARGE","RA_OF_ASC_NODE":"339.9654","PERIOD":"95.593","OBJECT_NAME":"STARLINK-1345","TLE_LINE2":"2 45585  53.0547 339.9654 0001464  81.6744 278.4411 15.06382680 87019","ECCENTRICITY":"0.00014640","FILE":"3209238","MEAN_MOTION_DOT":"0.00006299","SITE":"AFETR","BSTAR":"0.00044157000000","OBJECT_TYPE":"PAYLOAD","DECAY_DATE":null,"LAUNCH_DATE":"2020-04-22","TLE_LINE1":"1 45585U 20025BG  21312.36348751  .00006299  00000-0  44157-3 0  9992","ELEMENT_SET_NO":"999","CLASSIFICATION_TYPE":"U","MEAN_ANOMALY":"278.4411"},{"PERIOD":"95.591","OBJECT_NAME":"STARLINK-1347","TLE_LINE2":"2 45586  53.0556 338.1259 0001309  87.7784 272.3355 15.06410868 87066","RCS_SIZE":"LARGE","RA_OF_ASC_NODE":"338.1259","COUNTRY_CODE":"US","PERIAPSIS":"546.274","TIME_SYSTEM":"UTC","EPOCH":"2021-11-08T18:27:14.291424","NORAD_CAT_ID":"45586","APOAPSIS":"548.087","INCLINATION":"53.0556","EPHEMERIS_TYPE":"0","REF_FRAME":"TEME","SEMIMAJOR_AXIS":"6925.315","OBJECT_ID":"2020-025BH","CENTER_NAME":"EARTH","MEAN_MOTION_DDOT":"0.0000000000000","GP_ID":"189300433","MEAN_ELEMENT_THEORY":"SGP4","MEAN_MOTION":"15.06410868","ARG_OF_PERICENTER":"87.7784","REV_AT_EPOCH":"8706","MEAN_ANOMALY":"272.3355","CLASSIFICATION_TYPE":"U","ELEMENT_SET_NO":"999","LAUNCH_DATE":"2020-04-22","TLE_LINE1":"1 45586U 20025BH  21312.76891541  .00007088  00000-0  49414-3 0  9995","DECAY_DATE":null,"OBJECT_TYPE":"PAYLOAD","SITE":"AFETR","BSTAR":"0.00049414000000","FILE":"3209620","ECCENTRICITY":"0.00013090","MEAN_MOTION_DOT":"0.00007088"},{"SEMIMAJOR_AXIS":"6925.307","REF_FRAME":"TEME","MEAN_MOTION":"15.06413469","ARG_OF_PERICENTER":"81.6964","REV_AT_EPOCH":"8708","GP_ID":"189301185","MEAN_ELEMENT_THEORY":"SGP4","MEAN_MOTION_DDOT":"0.0000000000000","CENTER_NAME":"EARTH","OBJECT_ID":"2020-025BJ","RA_OF_ASC_NODE":"337.9832","RCS_SIZE":"LARGE","TLE_LINE2":"2 45587  53.0516 337.9832 0001292  81.6964 278.4172 15.06413469 87087","OBJECT_NAME":"STARLINK-1349","PERIOD":"95.591","EPHEMERIS_TYPE":"0","INCLINATION":"53.0516","APOAPSIS":"548.067","TIME_SYSTEM":"UTC","NORAD_CAT_ID":"45587","EPOCH":"2021-11-08T19:20:19.211424","PERIAPSIS":"546.278","COUNTRY_CODE":"US","OBJECT_TYPE":"PAYLOAD","DECAY_DATE":null,"MEAN_MOTION_DOT":"0.00013212","ECCENTRICITY":"0.00012920","FILE":"3209620","BSTAR":"0.00090390000000","SITE":"AFETR","CLASSIFICATION_TYPE":"U","MEAN_ANOMALY":"278.4172","TLE_LINE1":"1 45587U 20025BJ  21312.80577791  .00013212  00000-0  90390-3 0  9994","LAUNCH_DATE":"2020-04-22","ELEMENT_SET_NO":"999"},{"ELEMENT_SET_NO":"999","LAUNCH_DATE":"2020-04-22","TLE_LINE1":"1 45588U 20025BK  21312.78368219  .00007328  00000-0  51056-3 0  9992","MEAN_ANOMALY":"275.2959","CLASSIFICATION_TYPE":"U","BSTAR":"0.00051056000000","SITE":"AFETR","FILE":"3209620","ECCENTRICITY":"0.00012880","MEAN_MOTION_DOT":"0.00007328","DECAY_DATE":null,"OBJECT_TYPE":"PAYLOAD","COUNTRY_CODE":"US","PERIAPSIS":"546.368","EPOCH":"2021-11-08T18:48:30.141216","TIME_SYSTEM":"UTC","NORAD_CAT_ID":"45588","APOAPSIS":"548.152","INCLINATION":"53.0558","EPHEMERIS_TYPE":"0","PERIOD":"95.593","OBJECT_NAME":"STARLINK-1360","TLE_LINE2":"2 45588  53.0558 338.0794 0001288  84.8177 275.2959 15.06384986 87077","RCS_SIZE":"LARGE","RA_OF_ASC_NODE":"338.0794","OBJECT_ID":"2020-025BK","MEAN_MOTION_DDOT":"0.0000000000000","CENTER_NAME":"EARTH","GP_ID":"189301935","MEAN_ELEMENT_THEORY":"SGP4","MEAN_MOTION":"15.06384986","REV_AT_EPOCH":"8707","ARG_OF_PERICENTER":"84.8177","REF_FRAME":"TEME","SEMIMAJOR_AXIS":"6925.395"}];
